CCSDS_OMM_VERS = 2.0
CREATION_DATE  = 
ORIGINATOR     = 

OBJECT_NAME    = STARLINK-36332
OBJECT_ID      = 2026-034N
CENTER_NAME    = EARTH
REF_FRAME      = TEME
TIME_SYSTEM    = UTC
MEAN_ELEMENT_THEORY = SGP/SGP4

EPOCH          = 2026-03-11T11:49:35.545728
MEAN_MOTION    = 15.80951803
ECCENTRICITY   = .0001063
INCLINATION    = 53.1581
RA_OF_ASC_NODE = 202.2149
ARG_OF_PERICENTER = 8.8614
MEAN_ANOMALY   = 351.2428

EPHEMERIS_TYPE = 0
CLASSIFICATION_TYPE = U
NORAD_CAT_ID   = 67862
ELEMENT_SET_NO = 999
REV_AT_EPOCH   = 422
BSTAR          = .1518E-2
MEAN_MOTION_DOT = .311084E-2
MEAN_MOTION_DDOT = 0

CCSDS_OMM_VERS = 2.0
CREATION_DATE  = 
ORIGINATOR     = 

OBJECT_NAME    = STARLINK-36835
OBJECT_ID      = 2026-034P
CENTER_NAME    = EARTH
REF_FRAME      = TEME
TIME_SYSTEM    = UTC
MEAN_ELEMENT_THEORY = SGP/SGP4

EPOCH          = 2026-03-11T11:48:30.769920
MEAN_MOTION    = 15.80980113
ECCENTRICITY   = .0001701
INCLINATION    = 53.1587
RA_OF_ASC_NODE = 202.2089
ARG_OF_PERICENTER = 7.6342
MEAN_ANOMALY   = 352.4706

EPHEMERIS_TYPE = 0
CLASSIFICATION_TYPE = U
NORAD_CAT_ID   = 67863
ELEMENT_SET_NO = 999
REV_AT_EPOCH   = 422
BSTAR          = .17384E-2
MEAN_MOTION_DOT = .358803E-2
MEAN_MOTION_DDOT = 0

CCSDS_OMM_VERS = 2.0
CREATION_DATE  = 
ORIGINATOR     = 

OBJECT_NAME    = STARLINK-36831
OBJECT_ID      = 2026-034Q
CENTER_NAME    = EARTH
REF_FRAME      = TEME
TIME_SYSTEM    = UTC
MEAN_ELEMENT_THEORY = SGP/SGP4

EPOCH          = 2026-03-11T11:47:25.679616
MEAN_MOTION    = 15.80948682
ECCENTRICITY   = .0000702
INCLINATION    = 53.1586
RA_OF_ASC_NODE = 202.2046
ARG_OF_PERICENTER = 103.2265
MEAN_ANOMALY   = 256.8836

EPHEMERIS_TYPE = 0
CLASSIFICATION_TYPE = U
NORAD_CAT_ID   = 67864
ELEMENT_SET_NO = 999
REV_AT_EPOCH   = 422
BSTAR          = .11109E-2
MEAN_MOTION_DOT = .225151E-2
MEAN_MOTION_DDOT = 0

CCSDS_OMM_VERS = 2.0
CREATION_DATE  = 
ORIGINATOR     = 

OBJECT_NAME    = STARLINK-36738
OBJECT_ID      = 2026-034R
CENTER_NAME    = EARTH
REF_FRAME      = TEME
TIME_SYSTEM    = UTC
MEAN_ELEMENT_THEORY = SGP/SGP4

EPOCH          = 2026-03-11T13:17:22.973568
MEAN_MOTION    = 15.80987927
ECCENTRICITY   = .0000955
INCLINATION    = 53.1586
RA_OF_ASC_NODE = 201.8823
ARG_OF_PERICENTER = 102.4455
MEAN_ANOMALY   = 257.6675

EPHEMERIS_TYPE = 0
CLASSIFICATION_TYPE = U
NORAD_CAT_ID   = 67865
ELEMENT_SET_NO = 999
REV_AT_EPOCH   = 423
BSTAR          = .15306E-2
MEAN_MOTION_DOT = .314307E-2
MEAN_MOTION_DDOT = 0

CCSDS_OMM_VERS = 2.0
CREATION_DATE  = 
ORIGINATOR     = 

OBJECT_NAME    = STARLINK-36780
OBJECT_ID      = 2026-034S
CENTER_NAME    = EARTH
REF_FRAME      = TEME
TIME_SYSTEM    = UTC
MEAN_ELEMENT_THEORY = SGP/SGP4

EPOCH          = 2026-03-11T11:45:16.096032
MEAN_MOTION    = 15.80937211
ECCENTRICITY   = .0000966
INCLINATION    = 53.1591
RA_OF_ASC_NODE = 202.1925
ARG_OF_PERICENTER = 123.8651
MEAN_ANOMALY   = 236.2464

EPHEMERIS_TYPE = 0
CLASSIFICATION_TYPE = U
NORAD_CAT_ID   = 67866
ELEMENT_SET_NO = 999
REV_AT_EPOCH   = 422
BSTAR          = .95884E-3
MEAN_MOTION_DOT = .193414E-2
MEAN_MOTION_DDOT = 0

CCSDS_OMM_VERS = 2.0
CREATION_DATE  = 
ORIGINATOR     = 

OBJECT_NAME    = STARLINK-36761
OBJECT_ID      = 2026-034T
CENTER_NAME    = EARTH
REF_FRAME      = TEME
TIME_SYSTEM    = UTC
MEAN_ELEMENT_THEORY = SGP/SGP4

EPOCH          = 2026-03-11T13:15:13.050432
MEAN_MOTION    = 15.80944167
ECCENTRICITY   = .0003558
INCLINATION    = 53.1594
RA_OF_ASC_NODE = 201.8707
ARG_OF_PERICENTER = 152.5955
MEAN_ANOMALY   = 207.5256

EPHEMERIS_TYPE = 0
CLASSIFICATION_TYPE = U
NORAD_CAT_ID   = 67867
ELEMENT_SET_NO = 999
REV_AT_EPOCH   = 423
BSTAR          = .88836E-3
MEAN_MOTION_DOT = .178941E-2
MEAN_MOTION_DDOT = 0

CCSDS_OMM_VERS = 2.0
CREATION_DATE  = 
ORIGINATOR     = 

OBJECT_NAME    = STARLINK-36762
OBJECT_ID      = 2026-034U
CENTER_NAME    = EARTH
REF_FRAME      = TEME
TIME_SYSTEM    = UTC
MEAN_ELEMENT_THEORY = SGP/SGP4

EPOCH          = 2026-03-11T11:43:06.756096
MEAN_MOTION    = 15.80917544
ECCENTRICITY   = .0001251
INCLINATION    = 53.1589
RA_OF_ASC_NODE = 202.1828
ARG_OF_PERICENTER = 96.6461
MEAN_ANOMALY   = 263.4704

EPHEMERIS_TYPE = 0
CLASSIFICATION_TYPE = U
NORAD_CAT_ID   = 67868
ELEMENT_SET_NO = 999
REV_AT_EPOCH   = 422
BSTAR          = .98923E-3
MEAN_MOTION_DOT = .199528E-2
MEAN_MOTION_DDOT = 0

CCSDS_OMM_VERS = 2.0
CREATION_DATE  = 
ORIGINATOR     = 

OBJECT_NAME    = STARLINK-36779
OBJECT_ID      = 2026-034V
CENTER_NAME    = EARTH
REF_FRAME      = TEME
TIME_SYSTEM    = UTC
MEAN_ELEMENT_THEORY = SGP/SGP4

EPOCH          = 2026-03-11T11:42:01.810080
MEAN_MOTION    = 15.80929573
ECCENTRICITY   = .0001409
INCLINATION    = 53.1590
RA_OF_ASC_NODE = 202.1768
ARG_OF_PERICENTER = 99.3721
MEAN_ANOMALY   = 260.7461

EPHEMERIS_TYPE = 0
CLASSIFICATION_TYPE = U
NORAD_CAT_ID   = 67869
ELEMENT_SET_NO = 999
REV_AT_EPOCH   = 422
BSTAR          = .97641E-3
MEAN_MOTION_DOT = .196984E-2
MEAN_MOTION_DDOT = 0

CCSDS_OMM_VERS = 2.0
CREATION_DATE  = 
ORIGINATOR     = 

OBJECT_NAME    = STARLINK-36770
OBJECT_ID      = 2026-034W
CENTER_NAME    = EARTH
REF_FRAME      = TEME
TIME_SYSTEM    = UTC
MEAN_ELEMENT_THEORY = SGP/SGP4

EPOCH          = 2026-03-11T13:10:54.320448
MEAN_MOTION    = 15.80950255
ECCENTRICITY   = .0001263
INCLINATION    = 53.1590
RA_OF_ASC_NODE = 201.8502
ARG_OF_PERICENTER = 60.4027
MEAN_ANOMALY   = 299.7121

EPHEMERIS_TYPE = 0
CLASSIFICATION_TYPE = U
NORAD_CAT_ID   = 67870
ELEMENT_SET_NO = 999
REV_AT_EPOCH   = 423
BSTAR          = .11392E-2
MEAN_MOTION_DOT = .231092E-2
MEAN_MOTION_DDOT = 0

CCSDS_OMM_VERS = 2.0
CREATION_DATE  = 
ORIGINATOR     = 

OBJECT_NAME    = STARLINK-36769
OBJECT_ID      = 2026-034X
CENTER_NAME    = EARTH
REF_FRAME      = TEME
TIME_SYSTEM    = UTC
MEAN_ELEMENT_THEORY = SGP/SGP4

EPOCH          = 2026-03-11T11:40:56.750016
MEAN_MOTION    = 15.80985340
ECCENTRICITY   = .0001181
INCLINATION    = 53.1592
RA_OF_ASC_NODE = 202.1729
ARG_OF_PERICENTER = 95.6725
MEAN_ANOMALY   = 264.4432

EPHEMERIS_TYPE = 0
CLASSIFICATION_TYPE = U
NORAD_CAT_ID   = 67871
ELEMENT_SET_NO = 999
REV_AT_EPOCH   = 422
BSTAR          = .15979E-2
MEAN_MOTION_DOT = .328667E-2
MEAN_MOTION_DDOT = 0

CCSDS_OMM_VERS = 2.0
CREATION_DATE  = 
ORIGINATOR     = 

OBJECT_NAME    = STARLINK-36786
OBJECT_ID      = 2026-034Y
CENTER_NAME    = EARTH
REF_FRAME      = TEME
TIME_SYSTEM    = UTC
MEAN_ELEMENT_THEORY = SGP/SGP4

EPOCH          = 2026-03-11T11:38:47.497344
MEAN_MOTION    = 15.80914245
ECCENTRICITY   = .0001231
INCLINATION    = 53.1591
RA_OF_ASC_NODE = 202.1630
ARG_OF_PERICENTER = 62.7556
MEAN_ANOMALY   = 297.3592

EPHEMERIS_TYPE = 0
CLASSIFICATION_TYPE = U
NORAD_CAT_ID   = 67872
ELEMENT_SET_NO = 999
REV_AT_EPOCH   = 422
BSTAR          = .877E-3
MEAN_MOTION_DOT = .176304E-2
MEAN_MOTION_DDOT = 0

CCSDS_OMM_VERS = 2.0
CREATION_DATE  = 
ORIGINATOR     = 

OBJECT_NAME    = STARLINK-36783
OBJECT_ID      = 2026-034Z
CENTER_NAME    = EARTH
REF_FRAME      = TEME
TIME_SYSTEM    = UTC
MEAN_ELEMENT_THEORY = SGP/SGP4

EPOCH          = 2026-03-11T08:35:38.002272
MEAN_MOTION    = 15.80952601
ECCENTRICITY   = .0000916
INCLINATION    = 53.1594
RA_OF_ASC_NODE = 202.7921
ARG_OF_PERICENTER = 58.0290
MEAN_ANOMALY   = 302.0822

EPHEMERIS_TYPE = 0
CLASSIFICATION_TYPE = U
NORAD_CAT_ID   = 67873
ELEMENT_SET_NO = 999
REV_AT_EPOCH   = 420
BSTAR          = .12328E-2
MEAN_MOTION_DOT = .25073E-2
MEAN_MOTION_DDOT = 0

