STARLINK-36332          
1 67862U 26034N   26070.49277252  .00311084  00000+0  15180-2 0  9990
2 67862  53.1581 202.2149 0001063   8.8614 351.2428 15.80951803  4224
STARLINK-36835          
1 67863U 26034P   26070.49202280  .00358803  00000+0  17384-2 0  9998
2 67863  53.1587 202.2089 0001701   7.6342 352.4706 15.80980113  4226
STARLINK-36831          
1 67864U 26034Q   26070.49126944  .00225151  00000+0  11109-2 0  9999
2 67864  53.1586 202.2046 0000702 103.2265 256.8836 15.80948682  4222
STARLINK-36738          
1 67865U 26034R   26070.55373812  .00314307  00000+0  15306-2 0  9990
2 67865  53.1586 201.8823 0000955 102.4455 257.6675 15.80987927  4239
STARLINK-36780          
1 67866U 26034S   26070.48976963  .00193414  00000+0  95884-3 0  9993
2 67866  53.1591 202.1925 0000966 123.8651 236.2464 15.80937211  4229
STARLINK-36761          
1 67867U 26034T   26070.55223438  .00178941  00000+0  88836-3 0  9991
2 67867  53.1594 201.8707 0003558 152.5955 207.5256 15.80944167  4232
STARLINK-36762          
1 67868U 26034U   26070.48827264  .00199528  00000+0  98923-3 0  9993
2 67868  53.1589 202.1828 0001251  96.6461 263.4704 15.80917544  4220
STARLINK-36779          
1 67869U 26034V   26070.48752095  .00196984  00000+0  97641-3 0  9992
2 67869  53.1590 202.1768 0001409  99.3721 260.7461 15.80929573  4225
STARLINK-36770          
1 67870U 26034W   26070.54923982  .00231092  00000+0  11392-2 0  9994
2 67870  53.1590 201.8502 0001263  60.4027 299.7121 15.80950255  4232
STARLINK-36769          
1 67871U 26034X   26070.48676794  .00328667  00000+0  15979-2 0  9994
2 67871  53.1592 202.1729 0001181  95.6725 264.4432 15.80985340  4220
STARLINK-36786          
1 67872U 26034Y   26070.48527196  .00176304  00000+0  87700-3 0  9997
2 67872  53.1591 202.1630 0001231  62.7556 297.3592 15.80914245  4222
STARLINK-36783          
1 67873U 26034Z   26070.35807873  .00250730  00000+0  12328-2 0  9996
2 67873  53.1594 202.7921 0000916  58.0290 302.0822 15.80952601  4203
